OBJECT_NAME,OBJECT_ID,EPOCH,MEAN_MOTION,ECCENTRICITY,INCLINATION,RA_OF_ASC_NODE,ARG_OF_PERICENTER,MEAN_ANOMALY,EPHEMERIS_TYPE,CLASSIFICATION_TYPE,NORAD_CAT_ID,ELEMENT_SET_NO,REV_AT_EPOCH,BSTAR,MEAN_MOTION_DOT,MEAN_MOTION_DDOT
STARLINK-30598,2023-160E,2023-11-09T14:00:01.000224,15.57114346,.0001301,42.9994,35.0330,282.0306,331.3834,0,U,58079,999,477,-.24637E-1,-.1648363E-1,0
STARLINK-30603,2023-160F,2023-11-09T14:00:01.000224,15.57112902,.0001139,42.9994,35.0319,277.6028,336.4134,0,U,58080,999,477,-.24632E-1,-.1647903E-1,0
STARLINK-30602,2023-160G,2023-11-09T14:00:01.000224,15.57112327,.0001469,42.9994,35.0284,274.9074,340.3096,0,U,58081,999,482,-.24679E-1,-.165086E-1,0
STARLINK-30610,2023-160H,2023-11-09T14:00:01.000224,15.57112756,.0001335,42.9994,35.0306,279.1639,335.4523,0,U,58082,999,481,-.24667E-1,-.1650095E-1,0
STARLINK-30551,2023-160J,2023-11-09T14:00:01.000224,15.57109322,.0001146,42.9994,35.0271,284.1567,331.6623,0,U,58083,999,481,-.24648E-1,-.1648668E-1,0
STARLINK-30586,2023-160K,2023-11-09T14:00:01.000224,15.57107840,.0001333,42.9995,35.0255,277.6191,338.8013,0,U,58084,999,482,-.24654E-1,-.1649037E-1,0
STARLINK-30609,2023-160L,2023-11-09T14:00:01.000224,15.57107243,.0001444,42.9994,35.0229,281.9036,335.7178,0,U,58085,999,481,-.24699E-1,-.1651765E-1,0
STARLINK-30583,2023-160M,2023-11-09T14:00:01.000224,15.57102776,.0001129,42.9994,35.0212,280.8873,337.3367,0,U,58086,999,482,-.24634E-1,-.1647452E-1,0
STARLINK-30557,2023-160N,2023-11-09T14:00:01.000224,15.57107931,.0001412,42.9994,35.0245,272.8624,344.1584,0,U,58087,999,481,-.24675E-1,-.1650344E-1,0
STARLINK-30591,2023-160P,2023-11-09T14:00:01.000224,15.57101528,.0001401,42.9995,35.0189,282.4003,337.0251,0,U,58088,999,482,-.24644E-1,-.1648115E-1,0
STARLINK-30584,2023-160Q,2023-11-09T14:00:01.000224,15.57100326,.0001406,42.9995,35.0172,281.0140,339.0126,0,U,58089,999,476,-.24644E-1,-.1648051E-1,0
STARLINK-30590,2023-160R,2023-11-09T14:00:01.000224,15.57103650,.00014,42.9994,35.0213,282.5431,336.2812,0,U,58090,999,481,-.24687E-1,-.165082E-1,0
STARLINK-30608,2023-160S,2023-11-09T14:00:01.000224,15.57099802,.0001487,42.9994,35.0164,276.4433,344.1840,0,U,58091,999,477,-.24656E-1,-.1648783E-1,0
STARLINK-30615,2023-160T,2023-11-09T14:00:01.000224,15.57094290,.0001089,42.9994,35.0123,275.2705,346.5612,0,U,58092,999,477,-.2462E-1,-.1646117E-1,0
STARLINK-30578,2023-160U,2023-11-09T14:00:01.000224,15.57096661,.0001297,42.9994,35.0143,278.0169,343.2130,0,U,58093,999,476,-.24635E-1,-.1647251E-1,0
STARLINK-30574,2023-160V,2023-11-09T14:00:01.000224,15.57095272,.0001501,42.9994,35.0105,277.4695,344.9615,0,U,58094,999,482,-.24652E-1,-.1648296E-1,0
STARLINK-30570,2023-160W,2023-11-09T14:00:01.000224,15.57092162,.0001219,42.9994,35.0089,282.3949,340.6392,0,U,58095,999,477,-.24631E-1,-.1646721E-1,0
STARLINK-30581,2023-160X,2023-11-09T14:00:01.000224,15.57090630,.0001148,42.9993,35.0073,280.9239,342.7114,0,U,58096,999,481,-.2463E-1,-.1646541E-1,0
STARLINK-30594,2023-161A,2023-11-09T14:00:01.000224,15.59696515,.0000902,53.0547,148.6428,79.3832,182.5612,0,U,58097,999,417,-.22794E-1,-.1666212E-1,0
STARLINK-30614,2023-161B,2023-11-09T14:00:01.000224,15.59694449,.0000864,53.0549,148.6415,92.8860,169.6605,0,U,58098,999,417,-.22772E-1,-.1664629E-1,0
STARLINK-30607,2023-161C,2023-11-09T14:00:01.000224,15.77100730,.0000883,53.0523,147.9778,82.8821,144.3236,0,U,58099,999,392,-.29688E-2,-.468457E-2,0
STARLINK-30600,2023-161D,2023-11-09T14:00:01.000224,15.59692918,.0000932,53.0547,148.6403,78.2690,184.8784,0,U,58100,999,417,-.22797E-1,-.1666216E-1,0
STARLINK-30605,2023-161E,2023-11-09T14:00:01.000224,15.59688520,.0000848,53.0547,148.6379,86.0978,178.2529,0,U,58101,999,418,-.22781E-1,-.1664871E-1,0
STARLINK-30592,2023-161F,2023-11-09T14:00:01.000224,15.59686448,.0000959,53.0549,148.6365,82.8108,182.1418,0,U,58102,999,417,-.22779E-1,-.1664674E-1,0
STARLINK-30589,2023-161G,2023-11-09T14:00:01.000224,15.59685457,.0000881,53.0547,148.6356,81.9035,183.6499,0,U,58103,999,417,-.22796E-1,-.1665696E-1,0
STARLINK-30617,2023-161H,2023-11-09T14:00:01.000224,15.59683662,.0001205,53.0548,148.6341,105.1129,161.0417,0,U,58104,999,417,-.2278E-1,-.1664701E-1,0
STARLINK-30616,2023-161J,2023-11-09T14:00:01.000224,15.59681112,.0000848,53.0549,148.6330,86.9434,179.8133,0,U,58105,999,417,-.22781E-1,-.1664445E-1,0
STARLINK-30612,2023-161K,2023-11-09T14:00:01.000224,15.59679470,.000104,53.0549,148.6318,100.7927,166.5651,0,U,58106,999,402,-.22785E-1,-.1664706E-1,0
STARLINK-30421,2023-161L,2023-11-09T14:00:01.000224,15.59678507,.0001077,53.0550,148.6303,109.4254,158.5337,0,U,58107,999,417,-.22787E-1,-.16648E-1,0
STARLINK-30611,2023-161M,2023-11-09T14:00:01.000224,15.59676298,.0000943,53.0549,148.6292,86.7115,181.8504,0,U,58108,999,417,-.22794E-1,-.1665067E-1,0
