STARLINK-30598          
1 58079U 23160E   23313.58334491 -.01648363  00000+0 -24637-1 0  9995
2 58079  42.9994  35.0330 0001301 282.0306 331.3834 15.57114346  4778
STARLINK-30603          
1 58080U 23160F   23313.58334491 -.01647903  00000+0 -24632-1 0  9991
2 58080  42.9994  35.0319 0001139 277.6028 336.4134 15.57112902  4772
STARLINK-30602          
1 58081U 23160G   23313.58334491 -.01650860  00000+0 -24679-1 0  9999
2 58081  42.9994  35.0284 0001469 274.9074 340.3096 15.57112327  4829
STARLINK-30610          
1 58082U 23160H   23313.58334491 -.01650095  00000+0 -24667-1 0  9997
2 58082  42.9994  35.0306 0001335 279.1639 335.4523 15.57112756  4816
STARLINK-30551          
1 58083U 23160J   23313.58334491 -.01648668  00000+0 -24648-1 0  9990
2 58083  42.9994  35.0271 0001146 284.1567 331.6623 15.57109322  4818
STARLINK-30586          
1 58084U 23160K   23313.58334491 -.01649037  00000+0 -24654-1 0  9999
2 58084  42.9995  35.0255 0001333 277.6191 338.8013 15.57107840  4826
STARLINK-30609          
1 58085U 23160L   23313.58334491 -.01651765  00000+0 -24699-1 0  9990
2 58085  42.9994  35.0229 0001444 281.9036 335.7178 15.57107243  4810
STARLINK-30583          
1 58086U 23160M   23313.58334491 -.01647452  00000+0 -24634-1 0  9998
2 58086  42.9994  35.0212 0001129 280.8873 337.3367 15.57102776  4825
STARLINK-30557          
1 58087U 23160N   23313.58334491 -.01650344  00000+0 -24675-1 0  9998
2 58087  42.9994  35.0245 0001412 272.8624 344.1584 15.57107931  4816
STARLINK-30591          
1 58088U 23160P   23313.58334491 -.01648115  00000+0 -24644-1 0  9998
2 58088  42.9995  35.0189 0001401 282.4003 337.0251 15.57101528  4820
STARLINK-30584          
1 58089U 23160Q   23313.58334491 -.01648051  00000+0 -24644-1 0  9998
2 58089  42.9995  35.0172 0001406 281.0140 339.0126 15.57100326  4766
STARLINK-30590          
1 58090U 23160R   23313.58334491 -.01650820  00000+0 -24687-1 0  9994
2 58090  42.9994  35.0213 0001400 282.5431 336.2812 15.57103650  4816
STARLINK-30608          
1 58091U 23160S   23313.58334491 -.01648783  00000+0 -24656-1 0  9996
2 58091  42.9994  35.0164 0001487 276.4433 344.1840 15.57099802  4778
STARLINK-30615          
1 58092U 23160T   23313.58334491 -.01646117  00000+0 -24620-1 0  9997
2 58092  42.9994  35.0123 0001089 275.2705 346.5612 15.57094290  4770
STARLINK-30578          
1 58093U 23160U   23313.58334491 -.01647251  00000+0 -24635-1 0  9994
2 58093  42.9994  35.0143 0001297 278.0169 343.2130 15.57096661  4761
STARLINK-30574          
1 58094U 23160V   23313.58334491 -.01648296  00000+0 -24652-1 0  9994
2 58094  42.9994  35.0105 0001501 277.4695 344.9615 15.57095272  4825
STARLINK-30570          
1 58095U 23160W   23313.58334491 -.01646721  00000+0 -24631-1 0  9993
2 58095  42.9994  35.0089 0001219 282.3949 340.6392 15.57092162  4774
STARLINK-30581          
1 58096U 23160X   23313.58334491 -.01646541  00000+0 -24630-1 0  9993
2 58096  42.9993  35.0073 0001148 280.9239 342.7114 15.57090630  4812
STARLINK-30594          
1 58097U 23161A   23313.58334491 -.01666212  00000+0 -22794-1 0  9991
2 58097  53.0547 148.6428 0000902  79.3832 182.5612 15.59696515  4170
STARLINK-30614          
1 58098U 23161B   23313.58334491 -.01664629  00000+0 -22772-1 0  9998
2 58098  53.0549 148.6415 0000864  92.8860 169.6605 15.59694449  4179
STARLINK-30607          
1 58099U 23161C   23313.58334491 -.00468457  00000+0 -29688-2 0  9993
2 58099  53.0523 147.9778 0000883  82.8821 144.3236 15.77100730  3920
STARLINK-30600          
1 58100U 23161D   23313.58334491 -.01666216  00000+0 -22797-1 0  9993
2 58100  53.0547 148.6403 0000932  78.2690 184.8784 15.59692918  4179
STARLINK-30605          
1 58101U 23161E   23313.58334491 -.01664871  00000+0 -22781-1 0  9992
2 58101  53.0547 148.6379 0000848  86.0978 178.2529 15.59688520  4183
STARLINK-30592          
1 58102U 23161F   23313.58334491 -.01664674  00000+0 -22779-1 0  9991
2 58102  53.0549 148.6365 0000959  82.8108 182.1418 15.59686448  4170
STARLINK-30589          
1 58103U 23161G   23313.58334491 -.01665696  00000+0 -22796-1 0  9996
2 58103  53.0547 148.6356 0000881  81.9035 183.6499 15.59685457  4176
STARLINK-30617          
1 58104U 23161H   23313.58334491 -.01664701  00000+0 -22780-1 0  9996
2 58104  53.0548 148.6341 0001205 105.1129 161.0417 15.59683662  4172
STARLINK-30616          
1 58105U 23161J   23313.58334491 -.01664445  00000+0 -22781-1 0  9993
2 58105  53.0549 148.6330 0000848  86.9434 179.8133 15.59681112  4179
STARLINK-30612          
1 58106U 23161K   23313.58334491 -.01664706  00000+0 -22785-1 0  9998
2 58106  53.0549 148.6318 0001040 100.7927 166.5651 15.59679470  4029
STARLINK-30421          
1 58107U 23161L   23313.58334491 -.01664800  00000+0 -22787-1 0  9996
2 58107  53.0550 148.6303 0001077 109.4254 158.5337 15.59678507  4173
STARLINK-30611          
1 58108U 23161M   23313.58334491 -.01665067  00000+0 -22794-1 0  9991
2 58108  53.0549 148.6292 0000943  86.7115 181.8504 15.59676298  4173
